NORAD_CAT_ID,OBJECT_NAME,OBJECT_TYPE,EPOCH,MEAN_MOTION,ECCENTRICITY,INCLINATION,RA_OF_ASC_NODE,ARG_OF_PERICENTER,MEAN_ANOMALY,BSTAR,MEAN_MOTION_DOT,MEAN_MOTION_DDOT,TLE_LINE0,TLE_LINE1,TLE_LINE2,SEMIMAJOR_AXIS,PERIOD,APOGEE,PERIGEE,DECAYED
52681.0,STARLINK-4068,PAYLOAD,2024-07-22 05:53:25,15.08860403,8.66e-05,53.2171,297.1781,91.2205,268.8886,0.0019783,0.00031355,0.0,0 STARLINK-4068,1 52681U 22053AB  24204.24543392  .00031355  00000-0  19783-2 0  9995,2 52681  53.2171 297.1781 0000866  91.2205 268.8886 15.08860403120854,6917.818,95.436,540.282,539.084,0.0
52681.0,STARLINK-4068,PAYLOAD,2024-07-23 12:05:44,15.08868946,0.0001026,53.2157,291.5282,91.1412,268.9698,0.0013441,0.00021185,0.0,0 STARLINK-4068,1 52681U 22053AB  24205.50399064  .00021185  00000-0  13441-2 0  9995,2 52681  53.2157 291.5282 0001026  91.1412 268.9698 15.08868946121044,6917.792,95.436,540.367,538.947,0.0
52681.0,STARLINK-4068,PAYLOAD,2024-07-24 05:34:59,15.08845994,9e-05,53.2146,288.2546,114.9614,245.1471,0.0010803,0.0001695,0.0,0 STARLINK-4068,1 52681U 22053AB  24206.23263292  .00016950  00000-0  10803-2 0  9992,2 52681  53.2146 288.2546 0000900 114.9614 245.1471 15.08845994121152,6917.862,95.437,540.35,539.104,0.0
52681.0,STARLINK-4068,PAYLOAD,2024-07-24 10:21:08,15.08843371,0.0001377,53.2143,287.3582,124.8043,235.3079,0.00065738,0.00010191,0.0,0 STARLINK-4068,1 52681U 22053AB  24206.43135264  .00010191  00000-0  65738-3 0  9990,2 52681  53.2143 287.3582 0001377 124.8043 235.3079 15.08843371121572,6917.87,95.437,540.688,538.782,0.0
52681.0,STARLINK-4068,PAYLOAD,2024-07-25 05:25:45,15.0886514,0.0001355,53.2136,283.7879,126.8205,233.2912,0.00077877,0.00012136,0.0,0 STARLINK-4068,1 52681U 22053AB  24207.22622289  .00012136  00000-0  77877-3 0  9994,2 52681  53.2136 283.7879 0001355 126.8205 233.2912 15.08865140121695,6917.804,95.436,540.606,538.731,0.0
52681.0,STARLINK-4068,PAYLOAD,2024-07-25 10:11:55,15.08842291,0.0001139,53.2154,282.8979,99.4031,260.709,1.1035e-05,-1.12e-06,0.0,0 STARLINK-4068,1 52681U 22053AB  24207.42494524 -.00000112  00000-0  11035-4 0  9992,2 52681  53.2154 282.8979 0001139  99.4031 260.7090 15.08842291121333,6917.873,95.437,540.526,538.95,0.0
52681.0,STARLINK-4068,PAYLOAD,2024-07-26 10:02:42,15.08841825,0.0001212,53.216,278.4405,79.1167,280.9962,0.0005088,7.819e-05,0.0,0 STARLINK-4068,1 52681U 22053AB  24208.41855044  .00007819  00000-0  50880-3 0  9990,2 52681  53.2160 278.4405 0001212  79.1167 280.9962 15.08841825121875,6917.875,95.437,540.578,538.901,0.0
52681.0,STARLINK-4068,PAYLOAD,2024-07-26 11:38:05,15.08843985,0.0001201,53.2158,278.1433,73.7081,286.4043,0.00049167,7.547e-05,0.0,0 STARLINK-4068,1 52681U 22053AB  24208.48478987  .00007547  00000-0  49167-3 0  9998,2 52681  53.2158 278.1433 0001201  73.7081 286.4043 15.08843985121491,6917.868,95.437,540.564,538.902,0.0
52681.0,STARLINK-4068,PAYLOAD,2024-07-26 21:10:24,15.08859144,0.0001308,53.2166,276.3595,78.3289,281.7849,0.00075358,0.00011732,0.0,0 STARLINK-4068,1 52681U 22053AB  24208.88222455  .00011732  00000-0  75358-3 0  9991,2 52681  53.2166 276.3595 0001308  78.3289 281.7849 15.08859144121944,6917.822,95.436,540.592,538.782,0.0
52681.0,STARLINK-4068,PAYLOAD,2024-07-27 09:53:30,15.08823624,0.0001393,53.2158,273.9808,86.8773,273.2379,-0.00026934,-4.57e-05,0.0,0 STARLINK-4068,1 52681U 22053AB  24209.41215615 -.00004570  00000-0 -26934-3 0  9991,2 52681  53.2158 273.9808 0001393  86.8773 273.2379 15.08823624121635,6917.93,95.439,540.759,538.832,0.0
52681.0,STARLINK-4068,PAYLOAD,2024-07-27 14:39:39,15.08825322,0.000143,53.2158,273.0873,89.1111,271.0045,-0.0001085,-2.014e-05,0.0,0 STARLINK-4068,1 52681U 22053AB  24209.61087797 -.00002014  00000-0 -10850-3 0  9992,2 52681  53.2158 273.0873 0001430  89.1111 271.0045 15.08825322122052,6917.925,95.438,540.78,538.801,0.0
52681.0,STARLINK-4068,PAYLOAD,2024-07-28 12:55:03,15.08855419,0.0001354,53.2156,268.9265,91.7894,268.3253,0.0010777,0.00016912,0.0,0 STARLINK-4068,1 52681U 22053AB  24210.53823833  .00016912  00000-0  10777-2 0  9991,2 52681  53.2156 268.9265 0001354  91.7894 268.3253 15.08855419121802,6917.833,95.437,540.635,538.762,0.0
52681.0,STARLINK-4068,PAYLOAD,2024-07-29 12:45:50,15.08850617,0.000126,53.2148,264.4673,95.6172,264.4964,0.00025692,3.805e-05,0.0,0 STARLINK-4068,1 52681U 22053AB  24211.53183330  .00003805  00000-0  25692-3 0  9993,2 52681  53.2148 264.4673 0001260  95.6172 264.4964 15.08850617121952,6917.848,95.437,540.585,538.841,0.0
52681.0,STARLINK-4068,PAYLOAD,2024-07-29 20:42:46,15.08851409,0.0001418,53.2154,262.9802,80.6307,279.4846,0.00025121,3.714e-05,0.0,0 STARLINK-4068,1 52681U 22053AB  24211.86303276  .00003714  00000-0  25121-3 0  9998,2 52681  53.2154 262.9802 0001418  80.6307 279.4846 15.08851409122399,6917.846,95.437,540.691,538.73,0.0
52681.0,STARLINK-4068,PAYLOAD,2024-07-30 09:25:51,15.08839095,0.0001223,53.215,260.5998,85.7664,274.3467,-5.4072e-05,-1.148e-05,0.0,0 STARLINK-4068,1 52681U 22053AB  24212.39295648 -.00001148  00000-0 -54072-4 0  9999,2 52681  53.2150 260.5998 0001223  85.7664 274.3467 15.08839095122087,6917.883,95.438,540.594,538.902,0.0
52681.0,STARLINK-4068,PAYLOAD,2024-07-30 20:33:33,15.08851133,0.0001366,53.2153,258.518,85.1124,275.0024,0.00026154,3.878e-05,0.0,0 STARLINK-4068,1 52681U 22053AB  24212.85663287  .00003878  00000-0  26154-3 0  9997,2 52681  53.2153 258.5180 0001366  85.1124 275.0024 15.08851133122548,6917.846,95.437,540.656,538.766,0.0
52681.0,STARLINK-4068,PAYLOAD,2024-07-31 12:27:24,15.08850567,0.000142,53.215,255.5451,88.1781,271.9374,0.00038719,5.881e-05,0.0,0 STARLINK-4068,1 52681U 22053AB  24213.51903316  .00005881  00000-0  38719-3 0  9997,2 52681  53.2150 255.5451 0001420  88.1781 271.9374 15.08850567122257,6917.848,95.437,540.695,538.731,0.0
52681.0,STARLINK-4068,PAYLOAD,2024-07-31 20:24:19,15.08855823,0.0001432,53.2149,254.0579,87.8642,272.2514,0.00051445,7.912e-05,0.0,0 STARLINK-4068,1 52681U 22053AB  24213.85023137  .00007912  00000-0  51445-3 0  9996,2 52681  53.2149 254.0579 0001432  87.8642 272.2514 15.08855823122693,6917.832,95.437,540.688,538.706,0.0
52681.0,STARLINK-4068,PAYLOAD,2024-08-01 12:18:11,15.08843755,0.0001638,53.217,251.0828,100.1515,259.9662,0.00011607,1.56e-05,0.0,0 STARLINK-4068,1 52681U 22053AB  24214.51263300  .00001560  00000-0  11607-3 0  9997,2 52681  53.2170 251.0828 0001638 100.1515 259.9662 15.08843755122403,6917.869,95.437,540.867,538.601,0.0
52681.0,STARLINK-4068,PAYLOAD,2024-08-02 12:08:58,15.08841763,0.0001326,53.215,246.6233,87.7438,272.3706,2.2231e-05,6.6e-07,0.0,0 STARLINK-4068,1 52681U 22053AB  24215.50623339  .00000066  00000-0  22231-4 0  9995,2 52681  53.2150 246.6233 0001326  87.7438 272.3706 15.08841763122943,6917.875,95.437,540.657,538.823,0.0
52681.0,STARLINK-4068,PAYLOAD,2024-08-03 08:49:00,15.08831709,0.0001294,53.2158,242.7567,88.5843,271.5297,5.6653e-05,6.14e-06,0.0,0 STARLINK-4068,1 52681U 22053AB  24216.36736195  .00000614  00000-0  56653-4 0  9999,2 52681  53.2158 242.7567 0001294  88.5843 271.5297 15.08831709122687,6917.906,95.438,540.666,538.876,0.0
52681.0,STARLINK-4068,PAYLOAD,2024-08-03 18:21:18,15.08837276,0.0001261,53.2157,240.9721,87.0302,273.0835,6.2913e-05,7.13e-06,0.0,0 STARLINK-4068,1 52681U 22053AB  24216.76479946  .00000713  00000-0  62913-4 0  9997,2 52681  53.2157 240.9721 0001261  87.0302 273.0835 15.08837276123137,6917.889,95.438,540.626,538.881,0.0
52681.0,STARLINK-4068,PAYLOAD,2024-08-04 10:15:09,15.0884017,0.0001321,53.2159,237.9988,87.0796,273.0347,0.00012583,1.715e-05,0.0,0 STARLINK-4068,1 52681U 22053AB  24217.42719822  .00001715  00000-0  12583-3 0  9991,2 52681  53.2159 237.9988 0001321  87.0796 273.0347 15.08840170122846,6917.88,95.438,540.659,538.831,0.0
52681.0,STARLINK-4068,PAYLOAD,2024-08-04 18:12:05,15.08847864,0.0001336,53.216,236.5121,87.6506,272.4639,0.00018053,2.587e-05,0.0,0 STARLINK-4068,1 52681U 22053AB  24217.75839241  .00002587  00000-0  18053-3 0  9991,2 52681  53.2160 236.5121 0001336  87.6506 272.4639 15.08847864123286,6917.856,95.437,540.646,538.797,0.0
52681.0,STARLINK-4068,PAYLOAD,2024-08-05 18:02:53,15.08827248,0.0001322,53.2145,232.0508,91.1542,268.9602,-0.00011961,-2.19e-05,0.0,0 STARLINK-4068,1 52681U 22053AB  24218.75200598 -.00002190  00000-0 -11961-3 0  9992,2 52681  53.2145 232.0508 0001322  91.1542 268.9602 15.08827248123042,6917.919,95.438,540.699,538.87,0.0
52681.0,STARLINK-4068,PAYLOAD,2024-08-06 08:21:21,15.08833111,0.0001319,53.2143,229.3749,92.4086,267.7057,-7.6656e-05,-1.507e-05,0.0,0 STARLINK-4068,1 52681U 22053AB  24219.34816672 -.00001507  00000-0 -76656-4 0  9998,2 52681  53.2143 229.3749 0001319  92.4086 267.7057 15.08833111123529,6917.901,95.438,540.679,538.854,0.0
52681.0,STARLINK-4068,PAYLOAD,2024-08-06 17:53:40,15.08836925,0.0001312,53.2144,227.5909,94.457,265.6572,1.0717e-05,-1.17e-06,0.0,0 STARLINK-4068,1 52681U 22053AB  24219.74560670 -.00000117  00000-0  10717-4 0  9997,2 52681  53.2144 227.5909 0001312  94.4570 265.6572 15.08836925123199,6917.89,95.438,540.662,538.847,0.0
52681.0,STARLINK-4068,PAYLOAD,2024-08-08 09:38:19,15.08840287,0.000135,53.2147,220.1563,95.9999,264.1147,0.00017716,2.533e-05,0.0,0 STARLINK-4068,1 52681U 22053AB  24221.40161140  .00002533  00000-0  17716-3 0  9990,2 52681  53.2147 220.1563 0001350  95.9999 264.1147 15.08840287123839,6917.88,95.438,540.678,538.811,0.0
52681.0,STARLINK-4068,PAYLOAD,2024-08-09 06:18:19,15.08855128,0.0001293,53.2145,216.2909,97.1243,262.9896,0.00034227,5.166e-05,0.0,0 STARLINK-4068,1 52681U 22053AB  24222.26272336  .00005166  00000-0  34227-3 0  9996,2 52681  53.2145 216.2909 0001293  97.1243 262.9896 15.08855128123577,6917.834,95.437,540.594,538.805,0.0
52681.0,STARLINK-4068,PAYLOAD,2024-08-10 04:33:43,15.08838958,0.0001451,53.2158,212.1279,102.2201,257.8954,6.5432e-05,7.54e-06,0.0,0 STARLINK-4068,1 52681U 22053AB  24223.19008613  .00000754  00000-0  65432-4 0  9995,2 52681  53.2158 212.1279 0001451 102.2201 257.8954 15.08838958123710,6917.884,95.438,540.752,538.745,0.0
